SKYSAT-C1               
1 41601U 16040C   26192.63835800  .00005514  00000+0  15589-3 0  9991
2 41601  96.9557 223.0369 0000645 355.4804   4.6435 15.36708815561620
LAPAN-A3                
1 41603U 16040E   26193.31857378  .00002053  00000+0  66157-4 0  9996
2 41603  97.1503 188.6423 0008309 288.9487  71.0855 15.33266251558669
GAOFEN-3                
1 41727U 16049A   26193.26817296  .00000177  00000+0  66803-4 0  9994
2 41727  98.4018 200.6755 0001796  86.8615 273.2780 14.42218995522266
SKYSAT-C4               
1 41771U 16058B   26192.62237898  .00010529  00000+0  19370-3 0  9994
2 41771  96.9168 213.3821 0003367 122.9938 237.1639 15.49356628549259
SKYSAT-C5               
1 41772U 16058C   26193.07956666  .00004664  00000+0  14543-3 0  9996
2 41772  97.0460 232.6062 0002223 169.3840 190.7451 15.33692145547563
SKYSAT-C2               
1 41773U 16058D   26193.04299966  .00007516  00000+0  17453-3 0  9999
2 41773  97.0160 214.2092 0001917   6.6282 353.4991 15.42631426548880
SKYSAT-C3               
1 41774U 16058E   26192.62742276  .00015432  00000+0  24355-3 0  9995
2 41774  96.9000 222.5485 0002310 132.6735 227.4714 15.53593180549904
ALSAT-1B                
1 41785U 16059C   26193.25055338  .00000073  00000+0  18961-4 0  9996
2 41785  97.7757 200.9324 0010111 138.1054 222.0930 14.72292495524267
PATHFINDER 1            
1 41787U 16059E   26193.22538344  .00000307  00000+0  61693-4 0  9998
2 41787  97.8175 191.3725 0029684 124.7499 235.6508 14.67691077523387
SCATSAT 1               
1 41790U 16059H   26193.16845621  .00000716  00000+0  10064-3 0  9993
2 41790  98.1179 257.1911 0055010 166.2317 194.0409 14.79582698105283
GOKTURK 1A              
1 41875U 16073A   26193.28144883  .00000212  00000+0  50769-4 0  9996
2 41875  98.1224  87.5595 0001456  78.7647 281.3719 14.62792029512491
RESOURCESAT-2A          
1 41877U 16074A   26193.33807925  .00000111  00000+0  70561-4 0  9998
2 41877  98.7524 266.6358 0002566  35.2992 324.8355 14.21608151497873
CARTOSAT-2D             
1 41948U 17008A   26193.31843479  .00002388  00000+0  11641-3 0  9998
2 41948  97.4098 252.1531 0005726 146.7730 213.3866 15.19270109521396
SENTINEL-2B             
1 42063U 17013A   26193.31239753  .00000070  00000+0  43266-4 0  9992
2 42063  98.5689 267.7314 0001230  90.5291 269.6033 14.30814721488239
CARTOSAT-2E             
1 42767U 17036C   26193.33614594  .00002422  00000+0  11815-3 0  9997
2 42767  97.4269 252.7223 0002935 197.4664 162.6470 15.19241802501964
FORMOSAT-5              
1 42920U 17049A   26193.29338542  .00000045  00000+0  22550-4 0  9991
2 42920  98.2247 268.0447 0011526  12.6726 347.4757 14.50907353470310
SENTINEL-5P             
1 42969U 17064A   26193.22437495  .00000005  00000+0  23382-4 0  9991
2 42969  98.7929 135.1783 0001112  92.3422 267.7882 14.19522978453113
SKYSAT-C11              
1 42987U 17068A   26192.71211125  .00018813  00000+0  24139-3 0  9994
2 42987  97.4366 342.6375 0000957 163.5740 196.5548 15.59189206487063
SKYSAT-C10              
1 42988U 17068B   26193.19683330  .00006339  00000+0  18867-3 0  9990
2 42988  97.4527 330.2987 0001407 109.1454 250.9941 15.35077079486197
SKYSAT-C9               
1 42989U 17068C   26192.18672867  .00008274  00000+0  19496-3 0  9991
2 42989  97.4444 330.4450 0008945  57.4451 302.7659 15.42149851486456
SKYSAT-C8               
1 42990U 17068D   26192.86941280  .00006258  00000+0  17273-3 0  9997
2 42990  97.4545 329.8628 0001248 101.2013 258.9372 15.37449279486107
SKYSAT-C7               
1 42991U 17068E   26193.18922727  .00006063  00000+0  16760-3 0  9993
2 42991  97.4554 331.1783 0005961  31.4631 328.6968 15.37404124486210
SKYSAT-C6               
1 42992U 17068F   26192.86656048  .00005678  00000+0  17431-3 0  9995
2 42992  97.4592 330.7193 0005162  97.3545 262.8285 15.34133330486105
CARTOSAT-2F             
1 43111U 18004A   26193.30286448  .00003400  00000+0  16454-3 0  9998
2 43111  97.4782 252.6904 0002454 142.5355 217.6051 15.19258704471148
GAOFEN-1 02             
1 43259U 18031A   26193.30600407  .00000128  00000+0  25752-4 0  9992
2 43259  98.0521 255.7612 0001605 304.2662  55.8395 14.76469019446403
GAOFEN-1 03             
1 43260U 18031B   26193.35185499  .00000346  00000+0  57170-4 0  9999
2 43260  98.0505 255.6626 0002635  23.4739 336.6590 14.76460158446402
GAOFEN-1 04             
1 43262U 18031D   26193.32757451  .00000295  00000+0  49859-4 0  9999
2 43262  98.0522 255.8324 0001430  56.9088 303.2259 14.76468108446393
SENTINEL-3B             
1 43437U 18039A   26193.22606097  .00000035  00000+0  32510-4 0  9997
2 43437  98.6236 260.3977 0001066 119.2246 240.9041 14.26735854427692
GAOFEN-5 01             
1 43461U 18043A   26192.86043952  .00000153  00000+0  41589-4 0  9990
2 43461  98.4587 164.9673 0002283  38.6009 321.5354 14.60622043435292
GAOFEN-6                
1 43484U 18048A   26193.34995844  .00000828  00000+0  12662-3 0  9998
2 43484  98.0965 256.0451 0012171  89.8654 270.3950 14.76383245437101
