OBJECT_NAME,OBJECT_ID,EPOCH,MEAN_MOTION,ECCENTRICITY,INCLINATION,RA_OF_ASC_NODE,ARG_OF_PERICENTER,MEAN_ANOMALY,EPHEMERIS_TYPE,CLASSIFICATION_TYPE,NORAD_CAT_ID,ELEMENT_SET_NO,REV_AT_EPOCH,BSTAR,MEAN_MOTION_DOT,MEAN_MOTION_DDOT
SKYSAT-C1,2016-040C,2026-07-11T15:19:14.131200,15.36708815,.0000645,96.9557,223.0369,355.4804,4.6435,0,U,41601,999,56162,.15588995E-3,.5514E-4,0
LAPAN-A3,2016-040E,2026-07-12T07:38:44.774592,15.33266251,.00083096,97.1503,188.6423,288.9487,71.0855,0,U,41603,999,55866,.66156609E-4,.2053E-4,0
GAOFEN-3,2016-049A,2026-07-12T06:26:10.143744,14.42218995,.00017964,98.4018,200.6755,86.8615,273.2780,0,U,41727,999,52226,.66802769E-4,.177E-5,0
SKYSAT-C4,2016-058B,2026-07-11T14:56:13.543872,15.49356628,.00033674,96.9168,213.3821,122.9938,237.1639,0,U,41771,999,54925,.19370337E-3,.10529E-3,0
SKYSAT-C5,2016-058C,2026-07-12T01:54:34.559424,15.33692145,.00022234,97.0460,232.6062,169.3840,190.7451,0,U,41772,999,54756,.14542969E-3,.4664E-4,0
SKYSAT-C2,2016-058D,2026-07-12T01:01:55.170624,15.42631426,.00019175,97.0160,214.2092,6.6282,353.4991,0,U,41773,999,54888,.1745309E-3,.7516E-4,0
SKYSAT-C3,2016-058E,2026-07-11T15:03:29.326464,15.53593180,.00023109,96.9000,222.5485,132.6735,227.4714,0,U,41774,999,54990,.24354838E-3,.15432E-3,0
ALSAT-1B,2016-059C,2026-07-12T06:00:47.812032,14.72292495,.00101116,97.7757,200.9324,138.1054,222.0930,0,U,41785,999,52426,.18961131E-4,.73E-6,0
PATHFINDER 1,2016-059E,2026-07-12T05:24:33.129216,14.67691077,.00296845,97.8175,191.3725,124.7499,235.6508,0,U,41787,999,52338,.61693341E-4,.307E-5,0
SCATSAT 1,2016-059H,2026-07-12T04:02:34.616544,14.79582698,.005501,98.1179,257.1911,166.2317,194.0409,0,U,41790,999,10528,.10064088E-3,.716E-5,0
GOKTURK 1A,2016-073A,2026-07-12T06:45:17.178912,14.62792029,.00014562,98.1224,87.5595,78.7647,281.3719,0,U,41875,999,51249,.50769108E-4,.212E-5,0
RESOURCESAT-2A,2016-074A,2026-07-12T08:06:50.047200,14.21608151,.0002566,98.7524,266.6358,35.2992,324.8355,0,U,41877,999,49787,.7056078E-4,.111E-5,0
CARTOSAT-2D,2017-008A,2026-07-12T07:38:32.765856,15.19270109,.00057262,97.4098,252.1531,146.7730,213.3866,0,U,41948,999,52139,.11641306E-3,.2388E-4,0
SENTINEL-2B,2017-013A,2026-07-12T07:29:51.146592,14.30814721,.00012305,98.5689,267.7314,90.5291,269.6033,0,U,42063,999,48823,.43266137E-4,.7E-6,0
CARTOSAT-2E,2017-036C,2026-07-12T08:04:03.009216,15.19241802,.00029357,97.4269,252.7223,197.4664,162.6470,0,U,42767,999,50196,.11815465E-3,.2422E-4,0
FORMOSAT-5,2017-049A,2026-07-12T07:02:28.500288,14.50907353,.0011526,98.2247,268.0447,12.6726,347.4757,0,U,42920,999,47031,.22550476E-4,.45E-6,0
SENTINEL-5P,2017-064A,2026-07-12T05:23:05.995680,14.19522978,.00011126,98.7929,135.1783,92.3422,267.7882,0,U,42969,999,45311,.23381794E-4,.5E-7,0
SKYSAT-C11,2017-068A,2026-07-11T17:05:26.412000,15.59189206,.00009576,97.4366,342.6375,163.5740,196.5548,0,U,42987,999,48706,.24138872E-3,.18813E-3,0
SKYSAT-C10,2017-068B,2026-07-12T04:43:26.397120,15.35077079,.00014071,97.4527,330.2987,109.1454,250.9941,0,U,42988,999,48619,.18867032E-3,.6339E-4,0
SKYSAT-C9,2017-068C,2026-07-11T04:28:53.357088,15.42149851,.00089454,97.4444,330.4450,57.4451,302.7659,0,U,42989,999,48645,.19496411E-3,.8274E-4,0
SKYSAT-C8,2017-068D,2026-07-11T20:51:57.265920,15.37449279,.00012484,97.4545,329.8628,101.2013,258.9372,0,U,42990,999,48610,.17273211E-3,.6258E-4,0
SKYSAT-C7,2017-068E,2026-07-12T04:32:29.236128,15.37404124,.0005961,97.4554,331.1783,31.4631,328.6968,0,U,42991,999,48621,.16759645E-3,.6063E-4,0
SKYSAT-C6,2017-068F,2026-07-11T20:47:50.825472,15.34133330,.00051622,97.4592,330.7193,97.3545,262.8285,0,U,42992,999,48610,.17430622E-3,.5678E-4,0
CARTOSAT-2F,2018-004A,2026-07-12T07:16:07.491072,15.19258704,.00024543,97.4782,252.6904,142.5355,217.6051,0,U,43111,999,47114,.16454094E-3,.34E-4,0
GAOFEN-1 02,2018-031A,2026-07-12T07:20:38.751648,14.76469019,.00016059,98.0521,255.7612,304.2662,55.8395,0,U,43259,999,44640,.25752261E-4,.128E-5,0
GAOFEN-1 03,2018-031B,2026-07-12T08:26:40.271136,14.76460158,.0002635,98.0505,255.6626,23.4739,336.6590,0,U,43260,999,44640,.57169825E-4,.346E-5,0
GAOFEN-1 04,2018-031D,2026-07-12T07:51:42.437664,14.76468108,.00014305,98.0522,255.8324,56.9088,303.2259,0,U,43262,999,44639,.49858558E-4,.295E-5,0
SENTINEL-3B,2018-039A,2026-07-12T05:25:31.667808,14.26735854,.00010665,98.6236,260.3977,119.2246,240.9041,0,U,43437,999,42769,.32510194E-4,.35E-6,0
GAOFEN-5 01,2018-043A,2026-07-11T20:39:01.974528,14.60622043,.00022834,98.4587,164.9673,38.6009,321.5354,0,U,43461,999,43529,.41589373E-4,.153E-5,0
GAOFEN-6,2018-048A,2026-07-12T08:23:56.409216,14.76383245,.00121716,98.0965,256.0451,89.8654,270.3950,0,U,43484,999,43710,.12661912E-3,.828E-5,0
